COSMOS 2419 (714)       
1 28915U 05050A   17136.76756885 -.00000015  00000-0  00000-0 0  9992
2 28915  65.4820  66.9107 0017475 350.0421 106.8995  2.13110266 88668
COSMOS 2425 (716)       
1 29670U 06062A   17136.86705242  .00000003  00000-0  10000-3 0  9997
2 29670  65.4766 305.9176 0021288 351.7397 233.9245  2.13104846 80866
COSMOS 2426 (717)       
1 29671U 06062B   17136.82570498  .00000003  00000-0  10000-3 0  9997
2 29671  65.4965 306.0081 0017546 157.8561 254.6497  2.13102927 80873
COSMOS 2424 (715)       
1 29672U 06062C   17136.49810831  .00000001  00000-0  10000-3 0  9997
2 29672  65.4795 305.9417 0017004 156.2215 180.3311  2.13102149 80858
COSMOS 2433 (720)       
1 32275U 07052A   17136.58718240 -.00000016  00000-0  10000-3 0  9998
2 32275  65.4971  66.6937 0003983 296.5628 266.5300  2.13104619 74371
COSMOS 2432 (719)       
1 32276U 07052B   17136.61693194 -.00000016  00000-0  10000-3 0  9993
2 32276  65.5093  66.7636 0013595 335.3431 203.5168  2.13104050 74371
COSMOS 2434 (721)       
1 32393U 07065A   17136.67815953  .00000001  00000-0  00000-0 0  9991
2 32393  65.0943 305.0874 0006012  99.0770  63.5545  2.13102821 73083
COSMOS 2436 (723)       
1 32395U 07065C   17136.65496036  .00000001  00000-0  10000-3 0  9992
2 32395  65.1039 305.1344 0015485   8.2146 185.1502  2.13104225 73015
COSMOS 2443 (725)       
1 33379U 08046B   17134.34248532 -.00000024  00000-0  00000-0 0  9997
2 33379  65.4251  66.1560 0011272 183.5578 358.5823  2.13099665 67181
COSMOS 2456 (730)       
1 36111U 09070A   17136.72338676  .00000050  00000-0  00000-0 0  9993
2 36111  64.1785 184.6535 0005680 302.1637  66.1503  2.13102888 57756
COSMOS 2457 (733)       
1 36112U 09070B   17136.75391837  .00000050  00000-0  00000-0 0  9995
2 36112  64.1612 184.5714 0006284 183.9766 336.4643  2.13101552 57758
COSMOS 2458 (734)       
1 36113U 09070C   17136.52905789  .00000049  00000-0  10000-3 0  9990
2 36113  64.1662 184.5879 0002069 310.8815  85.0075  2.13102124 57751
COSMOS 2459 (731)       
1 36400U 10007A   17136.63291073 -.00000017  00000-0  10000-3 0  9993
2 36400  65.4062  65.8017 0029628 351.2157 109.2974  2.13102226 56109
COSMOS 2461 (735)       
1 36401U 10007B   17136.75952406 -.00000017  00000-0  10000-3 0  9991
2 36401  65.3991  65.7766 0006778  48.4467  59.7983  2.13102288 56107
COSMOS 2460 (732)       
1 36402U 10007C   17136.69645753 -.00000017  00000-0  10000-3 0  9999
2 36402  65.3891  65.7505 0002347 339.1359 122.0681  2.13101678 56107
COSMOS 2465 (737)       
1 37138U 10041B   17136.69912574  .00000000  00000-0  00000-0 0  9999
2 37138  64.6934 305.0900 0035391 168.8833  54.5116  2.13104213 52175
COSMOS 2464 (736)       
1 37139U 10041C   17136.69661903  .00000000  00000-0  00000-0 0  9997
2 37139  64.6989 305.0903 0023959  17.3060  27.2298  2.13102571 52179
COSMOS 2471 (701K)      
1 37372U 11009A   17136.60651366 -.00000018  00000-0  00000-0 0  9994
2 37372  65.3879  65.7021 0007919 246.0726 281.6091  2.13107577 48378
COSMOS 2474 (742)       
1 37829U 11055A   17136.56147838  .00000049  00000-0  00000-0 0  9994
2 37829  64.5026 185.2098 0009982 252.7199 211.3178  2.13101930 43741
COSMOS 2476 (744)       
1 37867U 11064A   17136.67326889  .00000049  00000-0  00000-0 0  9993
2 37867  64.4825 185.2783 0019148 245.9109 349.8226  2.13101998 43093
COSMOS 2477 (745)       
1 37868U 11064B   17136.70022589  .00000049  00000-0  00000-0 0  9998
2 37868  64.4913 185.3217 0016929 247.3532 188.1941  2.13101778 43055
COSMOS 2475 (743)       
1 37869U 11064C   17136.68890662  .00000049  00000-0  00000-0 0  9991
2 37869  64.4988 185.3135 0021995 271.4946 111.7418  2.13101937 43062
COSMOS 2485 (747)       
1 39155U 13019A   17136.78957691  .00000050  00000-0  00000-0 0  9992
2 39155  64.6518 185.2965 0019439 241.0314 128.9583  2.13101985 31574
COSMOS 2492 (754)       
1 39620U 14012A   17136.67289583 -.00000018  00000-0  10000-3 0  9998
2 39620  65.2787  65.6931 0017122 331.8693 342.6996  2.13103406 24514
COSMOS 2500 (755)       
1 40001U 14032A   17136.56585419 -.00000018  00000-0  00000-0 0  9996
2 40001  65.2186  65.6970 0004919 229.0147 226.5291  2.13102824 22730
COSMOS 2501 (702K)      
1 40315U 14075A   17136.75769999 -.00000001  00000-0  00000-0 0  9991
2 40315  64.4260 306.4410 0014020 204.2301 204.9570  2.13098475 19145
COSMOS 2514 (751)       
1 41330U 16008A   17136.60066275 -.00000018  00000-0  00000-0 0  9996
2 41330  65.0204  65.8469 0008360 230.0496  72.1125  2.13103411  9899
COSMOS 2516 (753)       
1 41554U 16032A   17136.59218785 -.00000001  00000-0  00000-0 0  9996
2 41554  64.6478 306.2022 0009988 214.4250 334.0019  2.13101524  7504
